start=new Date('2022-05-17T00:00:00.000Z').valueOf();
sats=[{"OBJECT_TYPE":"PAYLOAD","COUNTRY_CODE":"US","PERIAPSIS":"546.101","REV_AT_EPOCH":"7000","CLASSIFICATION_TYPE":"U","ELEMENT_SET_NO":"999","BSTAR":"0.00030900000000","OBJECT_NAME":"STARLINK-1645","RCS_SIZE":"LARGE","OBJECT_ID":"2021-012C","REF_FRAME":"TEME","SITE":"AFETR","TLE_LINE2":"2 47622  53.0544 205.6092 0001610  50.0076 310.1054 15.06399306 70007","RA_OF_ASC_NODE":"205.6092","NORAD_CAT_ID":"47622","LAUNCH_DATE":"2021-02-16","GP_ID":"203698297","INCLINATION":"53.0544","CENTER_NAME":"EARTH","DECAY_DATE":null,"MEAN_ANOMALY":"310.1054","TIME_SYSTEM":"UTC","EPOCH":"2022-05-16T13:26:58.299072","MEAN_MOTION_DOT":"0.00004324","MEAN_MOTION_DDOT":"0.0000000000000","ARG_OF_PERICENTER":"50.0076","SEMIMAJOR_AXIS":"6925.351","ECCENTRICITY":"0.00016100","PERIOD":"95.592","MEAN_MOTION":"15.06399306","APOAPSIS":"548.331","TLE_LINE1":"1 47622U 21012C   22136.56039698  .00004324  00000-0  30900-3 0  9995","MEAN_ELEMENT_THEORY":"SGP4","FILE":"3448591","EPHEMERIS_TYPE":"0"},{"ECCENTRICITY":"0.00019380","PERIOD":"95.592","SEMIMAJOR_AXIS":"6925.351","MEAN_MOTION":"15.06399173","MEAN_MOTION_DDOT":"0.0000000000000","ARG_OF_PERICENTER":"45.3351","EPOCH":"2022-05-16T16:55:59.934720","TIME_SYSTEM":"UTC","MEAN_MOTION_DOT":"0.00002288","MEAN_ELEMENT_THEORY":"SGP4","FILE":"3448679","EPHEMERIS_TYPE":"0","TLE_LINE1":"1 47623U 21012D   22136.70555480  .00002288  00000-0  17249-3 0  9992","APOAPSIS":"548.558","RA_OF_ASC_NODE":"139.9772","TLE_LINE2":"2 47623  53.0554 139.9772 0001938  45.3351 314.7796 15.06399173 70431","SITE":"AFETR","OBJECT_NAME":"STARLINK-1655","OBJECT_ID":"2021-012D","REF_FRAME":"TEME","RCS_SIZE":"LARGE","CLASSIFICATION_TYPE":"U","BSTAR":"0.00017249000000","ELEMENT_SET_NO":"999","PERIAPSIS":"545.874","COUNTRY_CODE":"US","OBJECT_TYPE":"PAYLOAD","REV_AT_EPOCH":"7043","MEAN_ANOMALY":"314.7796","DECAY_DATE":null,"CENTER_NAME":"EARTH","NORAD_CAT_ID":"47623","GP_ID":"203702508","INCLINATION":"53.0554","LAUNCH_DATE":"2021-02-16"},{"MEAN_MOTION_DDOT":"0.0000000000000","ARG_OF_PERICENTER":"50.7573","MEAN_MOTION_DOT":"0.00000706","EPOCH":"2022-05-16T12:00:45.529344","TIME_SYSTEM":"UTC","MEAN_MOTION":"15.06386624","SEMIMAJOR_AXIS":"6925.390","PERIOD":"95.593","ECCENTRICITY":"0.00018370","FILE":"3448591","MEAN_ELEMENT_THEORY":"SGP4","EPHEMERIS_TYPE":"0","APOAPSIS":"548.527","TLE_LINE1":"1 47624U 21012E   22136.50052696  .00000706  00000-0  66321-4 0  9991","ELEMENT_SET_NO":"999","BSTAR":"0.00006632100000","CLASSIFICATION_TYPE":"U","REV_AT_EPOCH":"7029","PERIAPSIS":"545.982","COUNTRY_CODE":"US","OBJECT_TYPE":"PAYLOAD","TLE_LINE2":"2 47624  53.0552 185.9000 0001837  50.7573 309.3579 15.06386624 70299","SITE":"AFETR","RA_OF_ASC_NODE":"185.9000","RCS_SIZE":"LARGE","OBJECT_ID":"2021-012E","REF_FRAME":"TEME","OBJECT_NAME":"STARLINK-1669","CENTER_NAME":"EARTH","GP_ID":"203697296","LAUNCH_DATE":"2021-02-16","INCLINATION":"53.0552","NORAD_CAT_ID":"47624","DECAY_DATE":null,"MEAN_ANOMALY":"309.3579"},{"COUNTRY_CODE":"US","OBJECT_TYPE":"PAYLOAD","PERIAPSIS":"546.229","REV_AT_EPOCH":"6951","CLASSIFICATION_TYPE":"U","ELEMENT_SET_NO":"999","BSTAR":"0.00009361800000","OBJECT_NAME":"STARLINK-1704","RCS_SIZE":"LARGE","REF_FRAME":"TEME","OBJECT_ID":"2021-012F","SITE":"AFETR","TLE_LINE2":"2 47625  53.0534 204.9908 0001420  59.6074 300.5056 15.06400374 69516","RA_OF_ASC_NODE":"204.9908","NORAD_CAT_ID":"47625","GP_ID":"203702509","LAUNCH_DATE":"2021-02-16","INCLINATION":"53.0534","CENTER_NAME":"EARTH","DECAY_DATE":null,"MEAN_ANOMALY":"300.5056","EPOCH":"2022-05-16T16:50:01.449888","TIME_SYSTEM":"UTC","MEAN_MOTION_DOT":"0.00001113","MEAN_MOTION_DDOT":"0.0000000000000","ARG_OF_PERICENTER":"59.6074","SEMIMAJOR_AXIS":"6925.347","PERIOD":"95.592","ECCENTRICITY":"0.00014200","MEAN_MOTION":"15.06400374","APOAPSIS":"548.196","TLE_LINE1":"1 47625U 21012F   22136.70140567  .00001113  00000-0  93618-4 0  9991","MEAN_ELEMENT_THEORY":"SGP4","FILE":"3448679","EPHEMERIS_TYPE":"0"},{"TLE_LINE1":"1 47626U 21012G   22136.48760692  .00000967  00000-0  83832-4 0  9997","APOAPSIS":"548.402","EPHEMERIS_TYPE":"0","FILE":"3448591","MEAN_ELEMENT_THEORY":"SGP4","PERIOD":"95.592","ECCENTRICITY":"0.00017280","SEMIMAJOR_AXIS":"6925.340","MEAN_MOTION":"15.06402802","TIME_SYSTEM":"UTC","EPOCH":"2022-05-16T11:42:09.237888","MEAN_MOTION_DOT":"0.00000967","ARG_OF_PERICENTER":"50.4270","MEAN_MOTION_DDOT":"0.0000000000000","MEAN_ANOMALY":"309.6872","DECAY_DATE":null,"NORAD_CAT_ID":"47626","LAUNCH_DATE":"2021-02-16","GP_ID":"203697798","INCLINATION":"53.0554","CENTER_NAME":"EARTH","OBJECT_NAME":"STARLINK-1761","OBJECT_ID":"2021-012G","REF_FRAME":"TEME","RCS_SIZE":"LARGE","RA_OF_ASC_NODE":"205.9569","SITE":"AFETR","TLE_LINE2":"2 47626  53.0554 205.9569 0001728  50.4270 309.6872 15.06402802 69997","COUNTRY_CODE":"US","PERIAPSIS":"546.008","OBJECT_TYPE":"PAYLOAD","REV_AT_EPOCH":"6999","CLASSIFICATION_TYPE":"U","BSTAR":"0.00008383200000","ELEMENT_SET_NO":"999"},{"APOAPSIS":"548.896","TLE_LINE1":"1 47627U 21012H   22136.58334491 -.00061746  00000-0 -41589-2 0  9998","FILE":"3448591","EPHEMERIS_TYPE":"0","MEAN_ELEMENT_THEORY":"SGP4","EPOCH":"2022-05-16T14:00:01.000224","TIME_SYSTEM":"UTC","MEAN_MOTION_DOT":"-0.00061746","ARG_OF_PERICENTER":"48.8032","MEAN_MOTION_DDOT":"0.0000000000000","SEMIMAJOR_AXIS":"6925.260","ECCENTRICITY":"0.00025580","PERIOD":"95.590","MEAN_MOTION":"15.06428970","NORAD_CAT_ID":"47627","GP_ID":"203698537","INCLINATION":"53.0527","LAUNCH_DATE":"2021-02-16","CENTER_NAME":"EARTH","DECAY_DATE":null,"MEAN_ANOMALY":"53.1950","PERIAPSIS":"545.353","COUNTRY_CODE":"US","OBJECT_TYPE":"PAYLOAD","REV_AT_EPOCH":"130","CLASSIFICATION_TYPE":"U","ELEMENT_SET_NO":"999","BSTAR":"-0.00415890000000","OBJECT_NAME":"STARLINK-1972","RCS_SIZE":"LARGE","OBJECT_ID":"2021-012H","REF_FRAME":"TEME","SITE":"AFETR","TLE_LINE2":"2 47627  53.0527 110.5021 0002558  48.8032  53.1950 15.06428970  1304","RA_OF_ASC_NODE":"110.5021"},{"MEAN_MOTION":"15.06390880","PERIOD":"95.593","ECCENTRICITY":"0.00016210","SEMIMAJOR_AXIS":"6925.377","MEAN_MOTION_DOT":"-0.00000853","TIME_SYSTEM":"UTC","EPOCH":"2022-05-16T12:35:15.489312","MEAN_MOTION_DDOT":"0.0000000000000","ARG_OF_PERICENTER":"59.4178","TLE_LINE1":"1 47628U 21012J   22136.52448483 -.00000853  00000-0 -38384-4 0  9993","APOAPSIS":"548.364","FILE":"3448591","EPHEMERIS_TYPE":"0","MEAN_ELEMENT_THEORY":"SGP4","OBJECT_ID":"2021-012J","REF_FRAME":"TEME","RCS_SIZE":"LARGE","OBJECT_NAME":"STARLINK-1973","RA_OF_ASC_NODE":"205.7850","TLE_LINE2":"2 47628  53.0535 205.7850 0001621  59.4178 300.6970 15.06390880 70003","SITE":"AFETR","REV_AT_EPOCH":"7000","OBJECT_TYPE":"PAYLOAD","COUNTRY_CODE":"US","PERIAPSIS":"546.119","ELEMENT_SET_NO":"999","BSTAR":"-0.00003838400000","CLASSIFICATION_TYPE":"U","MEAN_ANOMALY":"300.6970","DECAY_DATE":null,"GP_ID":"203696797","LAUNCH_DATE":"2021-02-16","INCLINATION":"53.0535","NORAD_CAT_ID":"47628","CENTER_NAME":"EARTH"},{"MEAN_MOTION_DDOT":"0.0000000000000","ARG_OF_PERICENTER":"57.7395","MEAN_MOTION_DOT":"0.00004706","TIME_SYSTEM":"UTC","EPOCH":"2022-05-16T22:00:00.999936","MEAN_MOTION":"15.06386564","SEMIMAJOR_AXIS":"6925.390","ECCENTRICITY":"0.00015900","PERIOD":"95.593","EPHEMERIS_TYPE":"0","FILE":"3448728","MEAN_ELEMENT_THEORY":"SGP4","APOAPSIS":"548.356","TLE_LINE1":"1 47629U 21012K   22136.91667824  .00004706  00000-0  33476-3 0  9994","ELEMENT_SET_NO":"999","BSTAR":"0.00033476000000","CLASSIFICATION_TYPE":"U","REV_AT_EPOCH":"7122","PERIAPSIS":"546.154","COUNTRY_CODE":"US","OBJECT_TYPE":"PAYLOAD","TLE_LINE2":"2 47629  53.0552  84.0178 0001590  57.7395  10.4251 15.06386564 71228","SITE":"AFETR","RA_OF_ASC_NODE":"84.0178","RCS_SIZE":"LARGE","OBJECT_ID":"2021-012K","REF_FRAME":"TEME","OBJECT_NAME":"STARLINK-1974","CENTER_NAME":"EARTH","LAUNCH_DATE":"2021-02-16","GP_ID":"203702546","INCLINATION":"53.0552","NORAD_CAT_ID":"47629","DECAY_DATE":null,"MEAN_ANOMALY":"10.4251"},{"TLE_LINE1":"1 47630U 21012L   22136.45534952  .00002180  00000-0  16526-3 0  9991","APOAPSIS":"548.721","FILE":"3448591","EPHEMERIS_TYPE":"0","MEAN_ELEMENT_THEORY":"SGP4","EPOCH":"2022-05-16T10:55:42.198528","TIME_SYSTEM":"UTC","MEAN_MOTION_DOT":"0.00002180","MEAN_MOTION_DDOT":"0.0000000000000","ARG_OF_PERICENTER":"36.4272","PERIOD":"95.592","ECCENTRICITY":"0.00021560","SEMIMAJOR_AXIS":"6925.363","MEAN_MOTION":"15.06395179","NORAD_CAT_ID":"47630","GP_ID":"203698298","LAUNCH_DATE":"2021-02-16","INCLINATION":"53.0548","CENTER_NAME":"EARTH","MEAN_ANOMALY":"323.6863","DECAY_DATE":null,"OBJECT_TYPE":"PAYLOAD","COUNTRY_CODE":"US","PERIAPSIS":"545.735","REV_AT_EPOCH":"7025","CLASSIFICATION_TYPE":"U","BSTAR":"0.00016526000000","ELEMENT_SET_NO":"999","OBJECT_NAME":"STARLINK-1983","REF_FRAME":"TEME","OBJECT_ID":"2021-012L","RCS_SIZE":"LARGE","RA_OF_ASC_NODE":"186.1017","SITE":"AFETR","TLE_LINE2":"2 47630  53.0548 186.1017 0002156  36.4272 323.6863 15.06395179 70250"},{"RCS_SIZE":"LARGE","OBJECT_ID":"2021-012N","REF_FRAME":"TEME","OBJECT_NAME":"STARLINK-1992","SITE":"AFETR","TLE_LINE2":"2 47632  53.0531 110.5282 0001935  48.2991 278.8583 15.06421360  1304","RA_OF_ASC_NODE":"110.5282","REV_AT_EPOCH":"130","COUNTRY_CODE":"US","OBJECT_TYPE":"PAYLOAD","PERIAPSIS":"545.808","BSTAR":"-0.00465510000000","ELEMENT_SET_NO":"999","CLASSIFICATION_TYPE":"U","DECAY_DATE":null,"MEAN_ANOMALY":"278.8583","GP_ID":"203698039","LAUNCH_DATE":"2021-02-16","INCLINATION":"53.0531","NORAD_CAT_ID":"47632","CENTER_NAME":"EARTH","MEAN_MOTION":"15.06421360","SEMIMAJOR_AXIS":"6925.283","ECCENTRICITY":"0.00019350","PERIOD":"95.591","MEAN_MOTION_DOT":"-0.00068992","EPOCH":"2022-05-16T14:00:01.000224","TIME_SYSTEM":"UTC","MEAN_MOTION_DDOT":"0.0000000000000","ARG_OF_PERICENTER":"48.2991","APOAPSIS":"548.488","TLE_LINE1":"1 47632U 21012N   22136.58334491 -.00068992  00000-0 -46551-2 0  9998","EPHEMERIS_TYPE":"0","FILE":"3448591","MEAN_ELEMENT_THEORY":"SGP4"}];
